NORAD_CAT_ID,OBJECT_NAME,OBJECT_TYPE,EPOCH,MEAN_MOTION,ECCENTRICITY,INCLINATION,RA_OF_ASC_NODE,ARG_OF_PERICENTER,MEAN_ANOMALY,BSTAR,MEAN_MOTION_DOT,MEAN_MOTION_DDOT,TLE_LINE0,TLE_LINE1,TLE_LINE2,SEMIMAJOR_AXIS,PERIOD,APOGEE,PERIGEE,DECAYED
53403.0,STARLINK-4507,PAYLOAD,2024-04-25 18:35:23,15.08852083,0.0001685,53.2182,310.1908,132.6429,227.4705,-0.00015923,-2.822e-05,0.0,0 STARLINK-4507,1 53403U 22097R   24116.77457208 -.00002822  00000-0 -15923-3 0  9998,2 53403  53.2182 310.1908 0001685 132.6429 227.4705 15.08852083 95413,6917.843,95.437,540.874,538.543,0.0
53403.0,STARLINK-4507,PAYLOAD,2024-04-25 23:21:32,15.08843358,0.0001642,53.2179,309.2985,129.387,230.7268,-1.2911e-05,-4.94e-06,0.0,0 STARLINK-4507,1 53403U 22097R   24116.97329335 -.00000494  00000-0 -12911-4 0  9997,2 53403  53.2179 309.2985 0001642 129.3870 230.7268 15.08843358 94953,6917.87,95.437,540.871,538.599,0.0
53403.0,STARLINK-4507,PAYLOAD,2024-04-26 05:43:04,15.0884788,0.0001215,53.2182,308.1143,123.1121,236.9988,0.00013251,1.822e-05,0.0,0 STARLINK-4507,1 53403U 22097R   24117.23824509  .00001822  00000-0  13251-3 0  9991,2 53403  53.2182 308.1143 0001215 123.1121 236.9988 15.08847880 94993,6917.856,95.437,540.562,538.881,0.0
53403.0,STARLINK-4507,PAYLOAD,2024-04-26 16:50:47,15.08829889,0.000145,53.2187,306.028,104.4711,255.6442,2.8839e-06,-2.42e-06,0.0,0 STARLINK-4507,1 53403U 22097R   24117.70194258 -.00000242  00000-0  28839-5 0  9990,2 53403  53.2187 306.0280 0001450 104.4711 255.6442 15.08829889 95066,6917.911,95.438,540.779,538.773,0.0
53403.0,STARLINK-4507,PAYLOAD,2024-04-26 21:36:56,15.08845279,0.0001255,53.2177,305.1354,121.3646,238.7469,0.0001365,1.885e-05,0.0,0 STARLINK-4507,1 53403U 22097R   24117.90064926  .00001885  00000-0  13650-3 0  9996,2 53403  53.2177 305.1354 0001255 121.3646 238.7469 15.08845279 95584,6917.864,95.437,540.597,538.861,0.0
53403.0,STARLINK-4507,PAYLOAD,2024-04-27 11:55:24,15.08847001,0.0002424,53.2179,302.4597,92.7823,267.3447,0.0001415,1.965e-05,0.0,0 STARLINK-4507,1 53403U 22097R   24118.49681242  .00001965  00000-0  14150-3 0  9992,2 53403  53.2179 302.4597 0002424  92.7823 267.3447 15.08847001 95671,6917.859,95.437,541.401,538.047,0.0
53403.0,STARLINK-4507,PAYLOAD,2024-04-27 19:52:21,15.08830183,0.0001216,53.2166,300.9769,80.2156,279.8973,7.5389e-05,9.12e-06,0.0,0 STARLINK-4507,1 53403U 22097R   24118.82802263  .00000912  00000-0  75389-4 0  9990,2 53403  53.2166 300.9769 0001216  80.2156 279.8973 15.08830183 95237,6917.91,95.438,540.617,538.934,0.0
53403.0,STARLINK-4507,PAYLOAD,2024-04-28 05:24:37,15.08867696,0.0001181,53.2175,299.1922,76.3787,283.7337,0.00018755,2.7e-05,0.0,0 STARLINK-4507,1 53403U 22097R   24119.22543176  .00002700  00000-0  18755-3 0  9990,2 53403  53.2175 299.1922 0001181  76.3787 283.7337 15.08867696 95297,6917.796,95.436,540.478,538.844,0.0
53403.0,STARLINK-4507,PAYLOAD,2024-04-28 11:46:09,15.08865706,0.0001864,53.2161,298.0029,80.8587,279.2616,0.00015594,2.196e-05,0.0,0 STARLINK-4507,1 53403U 22097R   24119.49039268  .00002196  00000-0  15594-3 0  9998,2 53403  53.2161 298.0029 0001864  80.8587 279.2616 15.08865706 95823,6917.802,95.436,540.956,538.377,0.0
53403.0,STARLINK-4507,PAYLOAD,2024-04-28 18:07:42,15.08855076,0.0001709,53.2186,296.8135,79.6193,280.4992,0.00024936,3.684e-05,0.0,0 STARLINK-4507,1 53403U 22097R   24119.75535391  .00003684  00000-0  24936-3 0  9998,2 53403  53.2186 296.8135 0001709  79.6193 280.4992 15.08855076 95371,6917.834,95.437,540.882,538.517,0.0
53403.0,STARLINK-4507,PAYLOAD,2024-04-29 05:15:26,15.08830853,0.0001261,53.2186,294.7303,89.3954,270.7183,-0.00014455,-2.587e-05,0.0,0 STARLINK-4507,1 53403U 22097R   24120.21906027 -.00002587  00000-0 -14455-3 0  9997,2 53403  53.2186 294.7303 0001261  89.3954 270.7183 15.08830853 95449,6917.908,95.438,540.646,538.901,0.0
53403.0,STARLINK-4507,PAYLOAD,2024-04-29 14:47:46,15.08820411,0.0001259,53.2172,292.9482,83.8307,276.2828,4.8913e-06,-2.1e-06,0.0,0 STARLINK-4507,1 53403U 22097R   24120.61650562 -.00000210  00000-0  48913-5 0  9999,2 53403  53.2172 292.9482 0001259  83.8307 276.2828 15.08820411 95996,6917.94,95.439,540.676,538.934,0.0
53403.0,STARLINK-4507,PAYLOAD,2024-04-29 17:58:31,15.08825805,0.00012,53.2176,292.3528,89.9207,270.1923,5.6002e-05,6.03e-06,0.0,0 STARLINK-4507,1 53403U 22097R   24120.74898148  .00000603  00000-0  56002-4 0  9999,2 53403  53.2176 292.3528 0001200  89.9207 270.1923 15.08825805 96012,6917.924,95.438,540.619,538.959,0.0
53403.0,STARLINK-4507,PAYLOAD,2024-04-30 14:38:30,15.08906026,0.0002996,53.2177,288.4865,76.9795,283.1532,-0.00097175,-0.0001575,0.0,0 STARLINK-4507,1 53403U 22097R   24121.61007720 -.00015750  00000-0 -97175-3 0  9990,2 53403  53.2177 288.4865 0002996  76.9795 283.1532 15.08906026 96143,6917.679,95.433,541.616,537.471,0.0
53403.0,STARLINK-4507,PAYLOAD,2024-04-30 17:49:18,15.08858224,0.0001652,53.2181,287.8914,85.8534,274.2647,-0.00026345,-4.481e-05,0.0,0 STARLINK-4507,1 53403U 22097R   24121.74256976 -.00004481  00000-0 -26345-3 0  9993,2 53403  53.2181 287.8914 0001652  85.8534 274.2647 15.08858224 95675,6917.825,95.436,540.833,538.547,0.0
53403.0,STARLINK-4507,PAYLOAD,2024-05-01 11:18:33,15.0883536,0.0001373,53.2186,284.6194,88.5077,271.6072,0.00018396,2.641e-05,0.0,0 STARLINK-4507,1 53403U 22097R   24122.47121706  .00002641  00000-0  18396-3 0  9997,2 53403  53.2186 284.6194 0001373  88.5077 271.6072 15.08835360 95788,6917.895,95.438,540.709,538.81,0.0
53403.0,STARLINK-4507,PAYLOAD,2024-05-01 17:40:05,15.08837181,0.0001378,53.2186,283.4299,88.5733,271.5417,0.00018548,2.665e-05,0.0,0 STARLINK-4507,1 53403U 22097R   24122.73617652  .00002665  00000-0  18548-3 0  9991,2 53403  53.2186 283.4299 0001378  88.5733 271.5417 15.08837181 96310,6917.889,95.438,540.707,538.801,0.0
53403.0,STARLINK-4507,PAYLOAD,2024-05-02 03:12:23,15.08848773,0.0001387,53.2191,281.6452,87.9115,272.2036,0.00018314,2.629e-05,0.0,0 STARLINK-4507,1 53403U 22097R   24123.13360860  .00002629  00000-0  18314-3 0  9993,2 53403  53.2191 281.6452 0001387  87.9115 272.2036 15.08848773 95889,6917.854,95.437,540.678,538.759,0.0
53403.0,STARLINK-4507,PAYLOAD,2024-05-02 11:09:20,15.08838432,0.0002143,53.2191,280.159,92.8167,267.307,4.7116e-05,4.62e-06,0.0,0 STARLINK-4507,1 53403U 22097R   24123.46482126  .00000462  00000-0  47116-4 0  9995,2 53403  53.2191 280.1590 0002143  92.8167 267.3070 15.08838432 95939,6917.885,95.438,541.233,538.268,0.0
53403.0,STARLINK-4507,PAYLOAD,2024-05-02 14:20:07,15.08827988,0.0001475,53.2186,279.5646,91.7575,268.3586,-3.6979e-05,-8.76e-06,0.0,0 STARLINK-4507,1 53403U 22097R   24123.59730970 -.00000876  00000-0 -36979-4 0  9998,2 53403  53.2186 279.5646 0001475  91.7575 268.3586 15.08827988 96449,6917.917,95.438,540.802,538.762,0.0
53403.0,STARLINK-4507,PAYLOAD,2024-05-02 17:30:53,15.08832487,0.0001355,53.2176,278.9689,89.6707,270.444,3.1744e-07,-2.83e-06,0.0,0 STARLINK-4507,1 53403U 22097R   24123.72978666 -.00000283  00000-0  31744-6 0  9997,2 53403  53.2176 278.9689 0001355  89.6707 270.4440 15.08832487 95978,6917.903,95.438,540.706,538.831,0.0
53403.0,STARLINK-4507,PAYLOAD,2024-05-03 03:03:11,15.08843983,0.0001219,53.2172,277.1847,78.8694,281.2435,8.9377e-05,1.135e-05,0.0,0 STARLINK-4507,1 53403U 22097R   24124.12721651  .00001135  00000-0  89377-4 0  9991,2 53403  53.2172 277.1847 0001219  78.8694 281.2435 15.08843983 96030,6917.868,95.437,540.577,538.89,0.0
53403.0,STARLINK-4507,PAYLOAD,2024-05-03 14:10:53,15.08842296,0.0001595,53.2174,275.1063,95.7062,264.4112,5.5696e-05,5.99e-06,0.0,0 STARLINK-4507,1 53403U 22097R   24124.59089819  .00000599  00000-0  55696-4 0  9995,2 53403  53.2174 275.1063 0001595  95.7062 264.4112 15.08842296 96596,6917.873,95.437,540.842,538.635,0.0
53403.0,STARLINK-4507,PAYLOAD,2024-05-03 18:57:02,15.0884934,0.0001851,53.2182,274.216,98.3622,261.758,0.00011928,1.611e-05,0.0,0 STARLINK-4507,1 53403U 22097R   24124.78961219  .00001611  00000-0  11928-3 0  9994,2 53403  53.2182 274.2160 0001851  98.3622 261.7580 15.08849340 96629,6917.852,95.437,540.997,538.436,0.0
53403.0,STARLINK-4507,PAYLOAD,2024-05-04 18:47:50,15.08830637,0.0001411,53.2164,269.7493,119.5068,240.6065,7.4848e-05,9.03e-06,0.0,0 STARLINK-4507,1 53403U 22097R   24125.78322541  .00000903  00000-0  74848-4 0  9998,2 53403  53.2164 269.7493 0001411 119.5068 240.6065 15.08830637 96284,6917.909,95.438,540.75,538.798,0.0
53403.0,STARLINK-4507,PAYLOAD,2024-05-05 02:44:46,15.08840925,0.0001293,53.2171,268.2665,85.5724,274.5416,4.0826e-05,3.62e-06,0.0,0 STARLINK-4507,1 53403U 22097R   24126.11442223  .00000362  00000-0  40826-4 0  9994,2 53403  53.2171 268.2665 0001293  85.5724 274.5416 15.08840925 96339,6917.878,95.437,540.637,538.848,0.0
53403.0,STARLINK-4507,PAYLOAD,2024-05-05 13:52:28,15.08838697,0.0001418,53.2175,266.1845,86.9429,273.1725,1.9058e-05,1.5e-07,0.0,0 STARLINK-4507,1 53403U 22097R   24126.57810571  .00000015  00000-0  19058-4 0  9997,2 53403  53.2175 266.1845 0001418  86.9429 273.1725 15.08838697 96898,6917.884,95.438,540.73,538.768,0.0
53403.0,STARLINK-4507,PAYLOAD,2024-05-05 17:03:14,15.08845984,0.0001414,53.2178,265.59,88.4475,271.6679,5.5686e-06,-1.99e-06,0.0,0 STARLINK-4507,1 53403U 22097R   24126.71058072 -.00000199  00000-0  55686-5 0  9995,2 53403  53.2178 265.5900 0001414  88.4475 271.6679 15.08845984 96911,6917.862,95.437,540.705,538.749,0.0
53403.0,STARLINK-4507,PAYLOAD,2024-05-06 02:35:32,15.0885297,0.0001403,53.218,263.8054,88.3931,271.7222,7.2027e-05,8.59e-06,0.0,0 STARLINK-4507,1 53403U 22097R   24127.10801278  .00000859  00000-0  72027-4 0  9992,2 53403  53.2180 263.8054 0001403  88.3931 271.7222 15.08852970 96489,6917.841,95.437,540.676,538.735,0.0
53403.0,STARLINK-4507,PAYLOAD,2024-05-06 08:57:05,15.08840625,0.0001272,53.2157,262.6187,103.6204,256.493,0.00012818,1.753e-05,0.0,0 STARLINK-4507,1 53403U 22097R   24127.37298026  .00001753  00000-0  12818-3 0  9997,2 53403  53.2157 262.6187 0001272 103.6204 256.4930 15.08840625 96520,6917.878,95.438,540.623,538.864,0.0
